DMSP 5D-3 F16 (USA 172) 
1 28054U 03048A   26115.96086257  .00000063  00000+0  56516-4 0  9997
2 28054  98.9931 139.4345 0006009 299.4463 121.2488 14.14476875162104
METEOSAT-9 (MSG-2)      
1 28912U 05049B   26115.93261958  .00000116  00000+0  00000+0 0  9994
2 28912   9.2466  54.6723 0000497 356.0130 184.6448  1.00274462  6474
DMSP 5D-3 F17 (USA 191) 
1 29522U 06050A   26115.91380796  .00000105  00000+0  76728-4 0  9998
2 29522  98.7396 123.5512 0009634 198.9587 161.1230 14.14982478  5032
FENGYUN 3A              
1 32958U 08026A   26115.81878316  .00000078  00000+0  57373-4 0  9993
2 32958  98.6855  57.6408 0007593 281.0589  78.9733 14.19559597927973
GOES 14                 
1 35491U 09033A   26115.87683597 -.00000057  00000+0  00000+0 0  9996
2 35491   1.5570  83.6370 0001710 311.6603 305.3506  1.00116377  6068
DMSP 5D-3 F18 (USA 210) 
1 35951U 09057A   26115.95216805  .00000284  00000+0  17037-3 0  9999
2 35951  98.9016  96.8439 0011922  43.8558 316.3560 14.14865963852203
EWS-G2 (GOES 15)        
1 36411U 10008A   26115.97829042  .00000010  00000+0  00000+0 0  9999
2 36411   1.1403  83.7997 0003885  23.5234 162.1051  1.00272391 59119
COMS 1                  
1 36744U 10032A   26115.87767270 -.00000354  00000+0  00000+0 0  9990
2 36744   4.6726  76.0517 0001020 306.7515 275.1842  1.00272722 50565
FENGYUN 3B              
1 37214U 10059A   26115.97316822  .00000201  00000+0  12734-3 0  9997
2 37214  98.9673 161.7544 0021671 337.4766  90.8496 14.14829704800040
SUOMI NPP               
1 37849U 11061A   26115.89869426  .00000079  00000+0  58562-4 0  9992
2 37849  98.7925  57.1411 0002745 103.9569 256.1913 14.19505834751025
METEOSAT-10 (MSG-3)     
1 38552U 12035B   26115.70968660 -.00000017  00000+0  00000+0 0  9998
2 38552   4.5500  61.2406 0002075 310.7742  97.3874  1.00267683 50338
METOP-B                 
1 38771U 12049A   26115.88870630  .00000094  00000+0  62773-4 0  9998
2 38771  98.6550 168.4200 0003383 125.1604 234.9891 14.21432962705831
INSAT-3D                
1 39216U 13038B   26115.94925966 -.00000351  00000+0  00000+0 0  9999
2 39216   1.7929  83.1635 0001492 279.9920 322.0597  1.00272261 46550
FENGYUN 3C              
1 39260U 13052A   26115.95713075  .00000097  00000+0  70236-4 0  9990
2 39260  98.4951  92.2411 0014781 169.1784 190.9711 14.15742414651175
METEOR-M 2              
1 40069U 14037A   26115.91588598  .00000255  00000+0  13582-3 0  9995
2 40069  98.5087  93.5162 0005560 177.1271 182.9940 14.21446570611898
HIMAWARI-8              
1 40267U 14060A   26115.95142634  .00000000  00000+0  00000+0 0  9997
2 40267   0.0236 103.7909 0000868 289.7936 303.5642  1.00268743 42232
FENGYUN 2G              
1 40367U 14090A   26115.87203934 -.00000313  00000+0  00000+0 0  9991
2 40367   5.5091  73.4313 0002968 146.1556  48.0199  1.00272778 41477
METEOSAT-11 (MSG-4)     
1 40732U 15034A   26115.92551288  .00000052  00000+0  00000+0 0  9999
2 40732   3.0710  71.3804 0001603 344.5095 140.8296  1.00263852  6690
ELEKTRO-L 2             
1 41105U 15074A   26115.70682659 -.00000127  00000+0  00000+0 0  9995
2 41105   6.5646  71.1540 0002298 254.2871 128.2279  1.00270542 37987
INSAT-3DR               
1 41752U 16054A   26115.98035965 -.00000090  00000+0  00000+0 0  9993
2 41752   0.1129  86.1844 0011660 195.1084 359.6159  1.00271318 35297
HIMAWARI-9              
1 41836U 16064A   26115.95151301 -.00000288  00000+0  00000+0 0  9996
2 41836   0.0351 130.9871 0000849 265.1317 301.1521  1.00273826 34681
GOES 16                 
1 41866U 16071A   26115.90289280 -.00000104  00000+0  00000+0 0  9997
2 41866   0.2104  85.2605 0001541 248.4731 100.5078  1.00271074 34572
FENGYUN 4A              
1 41882U 16077A   26115.30638583 -.00000369  00000+0  00000+0 0  9992
2 41882   2.1903  80.7930 0008212 141.4993 225.0593  1.00267100 34405
CYGFM05                 
1 41884U 16078A   26115.74481048  .00023465  00000+0  34598-3 0  9999
2 41884  34.9569 247.2436 0007282  14.1610 345.9317 15.54375547520581
CYGFM04                 
1 41885U 16078B   26115.67573239  .00031199  00000+0  39249-3 0  9997
2 41885  34.9323 217.8561 0006125  59.6695 300.4634 15.58598367520796
CYGFM02                 
1 41886U 16078C   26115.70070268  .00032262  00000+0  37080-3 0  9999
2 41886  34.9406 213.5628 0007175  60.9673 299.1771 15.60946063520950
CYGFM01                 
1 41887U 16078D   26115.75513014  .00024675  00000+0  35574-3 0  9991
2 41887  34.9400 248.6375 0007034   7.5780 352.5049 15.54979339520534
CYGFM08                 
1 41888U 16078E   26115.73445212  .00029812  00000+0  39359-3 0  9997
2 41888  34.9432 229.6391 0008159  39.3875 320.7441 15.57308830520789
CYGFM07                 
1 41890U 16078G   26115.69672250  .00026992  00000+0  35570-3 0  9996
2 41890  34.9447 218.2736 0006534  58.4560 301.6802 15.57387079520807
CYGFM03                 
1 41891U 16078H   26115.66766540  .00026350  00000+0  34729-3 0  9993
2 41891  34.9402 220.4225 0005834  44.1998 315.9192 15.57391212520776
FENGYUN 3D              
1 43010U 17072A   26115.92532301 -.00000073  00000+0 -12530-4 0  9991
2 43010  99.0096  89.4142 0001366 155.2438 204.8803 14.19727155437578
NOAA 20 (JPSS-1)        
1 43013U 17073A   26115.84180819  .00000067  00000+0  52739-4 0  9995
2 43013  98.7744  55.7767 0002107  73.3563 286.7844 14.19547502437041
GOES 17                 
1 43226U 18022A   26115.86780985 -.00000195  00000+0  00000+0 0  9990
2 43226   0.8053  86.4106 0000672 269.3830  81.0047  1.00272049 29899
FENGYUN 2H              
1 43491U 18050A   26115.93929295 -.00000140  00000+0  00000+0 0  9992
2 43491   2.8988  79.6569 0001751 159.1021  32.5834  1.00274278 28919
METOP-C                 
1 43689U 18087A   26115.91074931  .00000093  00000+0  62337-4 0  9999
2 43689  98.6680 176.4605 0000861  40.6957 319.4284 14.21511580387405
GEO-KOMPSAT-2A          
1 43823U 18100A   26115.94899966 -.00000357  00000+0  00000+0 0  9999
2 43823   0.0569  67.0046 0001951 358.3470 258.5132  1.00271371 27109
METEOR-M2 2             
1 44387U 19038A   26115.98124899 -.00000023  00000+0  99019-5 0  9990
2 44387  98.9135 102.5033 0001733 128.8442 231.2892 14.24350550353861
ARKTIKA-M 1             
1 47719U 21016A   26113.16409645 -.00000101  00000+0  00000+0 0  9997
2 47719  63.2246  65.5569 7266494 269.6808  14.9538  2.00609676 37686
FENGYUN 3E              
1 49008U 21062A   26115.98560451  .00000218  00000+0  12322-3 0  9998
2 49008  98.7512 119.9750 0000785 198.0129 162.1020 14.19900052249173
GOES 18                 
1 51850U 22021A   26115.68255981  .00000083  00000+0  00000+0 0  9994
2 51850   0.0124  93.6914 0000386 357.8405 230.8777  1.00271801  6065
NOAA 21 (JPSS-2)        
1 54234U 22150A   26115.87605025  .00000052  00000+0  45256-4 0  9998
2 54234  98.7033  55.5515 0001848  23.4812 336.6449 14.19555503179120
METEOSAT-12 (MTG-I1)    
1 54743U 22170C   26115.92351955 -.00000021  00000+0  00000+0 0  9991
2 54743   0.7235  22.2457 0001126 331.0139 192.8148  1.00269304 12454
TIANMU-1 03             
1 55973U 23039A   26115.96366191  .00017471  00000+0  36260-3 0  9991
2 55973  97.5221 287.9548 0001650 286.2705  73.8362 15.45767606172761
TIANMU-1 04             
1 55974U 23039B   26115.90767244  .00017943  00000+0  36547-3 0  9992
2 55974  97.5154 287.0497 0002276 278.9136  81.1855 15.46309545172766
TIANMU-1 05             
1 55975U 23039C   26115.94210869  .00017527  00000+0  36453-3 0  9997
2 55975  97.5200 287.5665 0001631 328.4867  31.6284 15.45704468172743
TIANMU-1 06             
1 55976U 23039D   26115.90820384  .00017576  00000+0  35896-3 0  9997
2 55976  97.5209 288.1160 0001820 315.5012  44.6090 15.46237033172760
FENGYUN 3G              
1 56232U 23055A   26115.80353743  .00027829  00000+0  45359-3 0  9997
2 56232  49.9926 256.1754 0005970 319.9000  40.1526 15.52336625171861
METEOR-M2 3             
1 57166U 23091A   26115.96377630 -.00000006  00000+0  16423-4 0  9992
2 57166  98.6131 171.9995 0003294 338.5408  21.5633 14.24042152147080
TIANMU-1 07             
1 57399U 23101A   26115.89286181  .00007304  00000+0  25998-3 0  9997
2 57399  97.2642 167.7728 0001527  15.3068 344.8218 15.29246472153653
TIANMU-1 08             
1 57400U 23101B   26115.92580669  .00008420  00000+0  29899-3 0  9996
2 57400  97.2630 167.5812 0002300 321.7298  38.3779 15.29277475153658
TIANMU-1 09             
1 57401U 23101C   26115.90952508  .00006932  00000+0  24657-3 0  9993
2 57401  97.2589 167.0099 0002022   6.8305 353.2963 15.29283195153655
TIANMU-1 10             
1 57402U 23101D   26115.94223890  .00007600  00000+0  26979-3 0  9995
2 57402  97.2667 168.0375 0002934 341.5221  18.5912 15.29319097153655
FENGYUN 3F              
1 57490U 23111A   26115.90019326  .00000031  00000+0  35193-4 0  9996
2 57490  98.6861 186.8774 0000891 112.9797 247.1474 14.19929497141448
ARKTIKA-M 2             
1 58584U 23198A   26110.92958556  .00000217  00000+0  00000+0 0  9990
2 58584  63.2192 160.7194 6953303 267.0904  18.4710  2.00586979 17173
TIANMU-1 11             
1 58645U 23205A   26115.94724591  .00006395  00000+0  24794-3 0  9997
2 58645  97.3491 138.3375 0009058 176.7807 183.3492 15.26442198129555
TIANMU-1 12             
1 58646U 23205B   26115.98164449  .00006507  00000+0  25270-3 0  9997
2 58646  97.3478 138.1383 0007911 158.4398 201.7176 15.26388210129543
TIANMU-1 13             
1 58647U 23205C   26116.01094854  .00007027  00000+0  27215-3 0  9994
2 58647  97.3507 138.4268 0008758 142.5287 217.6564 15.26442139129541
TIANMU-1 14             
1 58648U 23205D   26115.93077779  .00006853  00000+0  26570-3 0  9991
2 58648  97.3442 137.5742 0009364 147.4453 212.7365 15.26412704129539
TIANMU-1 19             
1 58660U 23208A   26115.93985315  .00010376  00000+0  35152-3 0  9993
2 58660  97.4436 232.0252 0006265 133.2108 226.9657 15.30740125129336
TIANMU-1 20             
1 58661U 23208B   26115.95292912  .00010456  00000+0  34127-3 0  9990
2 58661  97.4377 232.6198 0008265 142.5810 217.6009 15.31928596129420
TIANMU-1 21             
1 58662U 23208C   26115.95221440  .00012334  00000+0  37569-3 0  9999
2 58662  97.4434 235.0804 0008263 137.5787 222.6095 15.34094429129558
TIANMU-1 22             
1 58663U 23208D   26115.90506530  .00008757  00000+0  30140-3 0  9993
2 58663  97.4431 231.9680 0004623 149.3350 210.8161 15.30284417129339
TIANMU-1 15             
1 58700U 24004A   26115.92779936  .00007178  00000+0  27801-3 0  9990
2 58700  97.4682 302.1272 0007547 161.7251 198.4260 15.26451792127801
TIANMU-1 16             
1 58701U 24004B   26115.97570201  .00006796  00000+0  26315-3 0  9994
2 58701  97.4626 301.4655 0005924 161.3712 198.7745 15.26490318127811
TIANMU-1 17             
1 58702U 24004C   26115.95970087  .00006631  00000+0  25802-3 0  9997
2 58702  97.4656 301.9181 0005688 166.1518 193.9877 15.26338324127808
TIANMU-1 18             
1 58703U 24004D   26115.94407299  .00006649  00000+0  25788-3 0  9999
2 58703  97.4674 302.1271 0004595 157.0470 203.0975 15.26451667127802
INSAT-3DS               
1 58990U 24033A   26115.93981295 -.00000169  00000+0  00000+0 0  9999
2 58990   0.0898  86.6512 0001910 298.1162 249.5846  1.00270704 46544
METEOR-M2 4             
1 59051U 24039A   26115.91921950  .00000025  00000+0  30948-4 0  9993
2 59051  98.6975  75.8860 0006488 329.8392  30.2412 14.22423888111830
GOES 19                 
1 60133U 24119A   26115.86780985 -.00000262  00000+0  00000+0 0  9995
2 60133   0.0279  93.9673 0000576 349.8122   7.3054  1.00270221  6434
FENGYUN 3H              
1 65815U 25219A   26115.82552989  .00000047  00000+0  42640-4 0  9997
2 65815  98.6740  57.6216 0000812 105.5714 254.5553 14.19943816 29952
